GLOBALSTAR M023         
1 25621U 99004A   25260.83018491 -.00000047  00000+0  31817-3 0  9991
2 25621  52.0093 131.3413 0010008 335.7538 103.9997 12.62506479227434
GLOBALSTAR M040         
1 25622U 99004B   25260.84163588 -.00000079  00000+0  13725-3 0  9994
2 25622  51.9904 135.5981 0000184 158.3130 281.9857 12.62017115226953
GLOBALSTAR M036         
1 25623U 99004C   25260.26971895 -.00000047  00000+0  51783-3 0  9990
2 25623  52.0001 357.6097 0010642 224.4966 150.5759 11.86608700189918
GLOBALSTAR M038         
1 25624U 99004D   25260.95479869 -.00000099  00000+0 -32522-4 0  9990
2 25624  51.9964 164.4110 0001113 253.8758 186.9524 12.32532068213818
GLOBALSTAR M022         
1 25649U 99012A   25260.59376014 -.00000106  00000+0 -23499-3 0  9995
2 25649  52.0060  39.6948 0002575  14.5616  67.0871 12.02502531187491
GLOBALSTAR M041         
1 25650U 99012B   25260.09743138 -.00000102  00000+0 -21308-3 0  9990
2 25650  52.0016 285.3036 0001533 134.7500 225.3461 11.96682648189285
GLOBALSTAR M046         
1 25651U 99012C   25260.58929056 -.00000094  00000+0 -57776-4 0  9999
2 25651  52.0089 346.4725 0002497  86.9876  22.1454 12.09413582194841
GLOBALSTAR M037         
1 25652U 99012D   25260.00777161 -.00000061  00000+0  23930-3 0  9992
2 25652  51.9989 264.4316 0002205  34.7851 343.5226 12.62451276222878
